GLOBALSTAR M063         
1 26081U 00008A   24343.48729550 -.00000005  00000+0  11429-2 0  9995
2 26081  51.9954 253.8062 0004586 317.4142 213.8575 11.86165815134947
GLOBALSTAR M062         
1 26082U 00008B   24343.20377156 -.00000057  00000+0  29543-3 0  9991
2 26082  51.9857 297.4024 0007485  62.6964 310.4306 12.43453081472865
GLOBALSTAR M060         
1 26083U 00008C   24343.40055760  .00000008  00000+0  98373-3 0  9990
2 26083  52.0007 229.8411 0004393  89.0497  82.4610 12.17650177129121
GLOBALSTAR M064         
1 26084U 00008D   24343.40532481 -.00000064  00000+0  26960-3 0  9997
2 26084  52.0053 355.0981 0001618  52.8973 307.2008 11.88526157144416
GLOBALSTAR M065         
1 31571U 07020A   24343.59830101  .00000056  00000+0  89287-3 0  9996
2 31571  51.9895  86.3511 0009735 238.6427 223.9225 12.61982338809348
GLOBALSTAR M069         
1 31573U 07020C   24343.57686328 -.00000052  00000+0  30883-3 0  9991
2 31573  51.9968  45.4893 0001039 125.1615  22.5696 12.53306409810413
GLOBALSTAR M072         
1 31574U 07020D   24343.54001046 -.00000093  00000+0  20111-4 0  9996
2 31574  52.0058 143.2594 0001276  97.1859 305.8044 12.34773397808663
GLOBALSTAR M071         
1 31576U 07020F   24343.61447344 -.00000052  00000+0  30244-3 0  9993
2 31576  52.0086  47.3737 0000533  80.2216  84.0992 12.56567435471666
